ORBCOMM FM33 [-]        
1 25983U 99065D   23304.27560712  .00001770  00000+0  63991-3 0  9993
2 25983  45.0301 299.8851 0010528 307.0319  67.4279 14.36912240250490
ORBCOMM FM36 [-]        
1 25984U 99065E   23304.51435001  .00001808  00000+0  68089-3 0  9998
2 25984  45.0412  20.9466 0005024 209.4764 150.5800 14.34786074249510
ORBCOMM FM35 [+]        
1 25985U 99065F   23304.50841244  .00001561  00000+0  59864-3 0  9995
2 25985  45.0419  23.0976 0004012 279.7864  80.2530 14.34474566249514
ORBCOMM FM34 [-]        
1 25986U 99065G   23304.54275969  .00001674  00000+0  63865-3 0  9996
2 25986  45.0410  23.4151 0005358 241.5149 118.5159 14.34424002249480
ORBCOMM FM38 [-]        
1 33060U 08031A   23303.88269685  .00003534  00000+0  53345-3 0  9994
2 33060  48.4411 260.3358 0005653   6.2562 353.8421 14.76296861826656
ORBCOMM FM41 [-]        
1 33061U 08031B   23303.89991897  .00003435  00000+0  52229-3 0  9993
2 33061  48.4450 266.4424 0004909 352.0121  35.6329 14.76058737826163
ORBCOMM FM29 [-]        
1 33062U 08031C   23304.37497156  .00003135  00000+0  48051-3 0  9992
2 33062  48.4399 272.1845 0006828 353.4579 166.9185 14.75944765826534
ORBCOMM FM39 [-]        
1 33063U 08031D   23304.19060936  .00002715  00000+0  42830-3 0  9997
2 33063  48.4414 292.2360 0007955 329.8170  30.2284 14.75088983826257
